{
  "type": "FeatureCollection",
  "features": [
    {
      "type": "Feature",
      "properties": {
        "@circle": {
          "type": "Mercator",
          "center": [
            -73.9526175,
            40.6308592
          ]
        }
      },
      "geometry": {
        "type": "Polygon",
        "coordinates": [
          [
            [
              -73.93659086131805,
              40.630859239282934
            ],
            [
              -73.93662248628712,
              40.63162295413762
            ],
            [
              -73.93671723638505,
              40.63238364627553
            ],
            [
              -73.93687473767646,
              40.633138313746365
            ],
            [
              -73.93709436857574,
              40.63388397847653
            ],
            [
              -73.93737526230005,
              40.63461769801812
            ],
            [
              -73.9377163102902,
              40.63533657715599
            ],
            [
              -73.93811616658556,
              40.63603777932677
            ],
            [
              -73.93857325313604,
              40.63671853780538
            ],
            [
              -73.93908576602983,
              40.63737616661446
            ],
            [
              -73.93965168261269,
              40.63800807111423
            ],
            [
              -73.94026876947042,
              40.638611758230994
            ],
            [
              -73.94093459124309,
              40.639184846284095
            ],
            [
              -73.94164652023635,
              40.63972507437277
            ],
            [
              -73.94240174679173,
              40.640230311286
            ],
            [
              -73.94319729037504,
              40.64069856390048
            ],
            [
              -73.94403001133921,
              40.64112798503366
            ],
            [
              -73.944896623315,
              40.64151688072124
            ],
            [
              -73.94579370618091,
              40.64186371689032
            ],
            [
              -73.94671771956065,
              40.642167125402395
            ],
            [
              -73.9476650167956,
              40.64242590944222
            ],
            [
              -73.94863185933632,
              40.642639048231686
            ],
            [
              -73.94961443149703,
              40.64280570105007
            ],
            [
              -73.95060885551428,
              40.64292521054502
            ],
            [
              -73.95161120685081,
              40.64299710532132
            ],
            [
              -73.95261752968383,
              40.64302110179725
            ],
            [
              -73.95362385251684,
              40.64299710532132
            ],
            [
              -73.95462620385338,
              40.64292521054502
            ],
            [
              -73.95562062787064,
              40.64280570105007
            ],
            [
              -73.95660320003135,
              40.642639048231686
            ],
            [
              -73.95757004257207,
              40.64242590944222
            ],
            [
              -73.95851733980702,
              40.642167125402395
            ],
            [
              -73.95944135318676,
              40.64186371689032
            ],
            [
              -73.96033843605267,
              40.64151688072124
            ],
            [
              -73.96120504802846,
              40.64112798503366
            ],
            [
              -73.96203776899263,
              40.64069856390048
            ],
            [
              -73.96283331257594,
              40.640230311286
            ],
            [
              -73.96358853913131,
              40.63972507437277
            ],
            [
              -73.96430046812459,
              40.639184846284095
            ],
            [
              -73.96496628989725,
              40.638611758230994
            ],
            [
              -73.96558337675496,
              40.63800807111423
            ],
            [
              -73.96614929333784,
              40.63737616661446
            ],
            [
              -73.96666180623163,
              40.63671853780538
            ],
            [
              -73.9671188927821,
              40.63603777932677
            ],
            [
              -73.96751874907748,
              40.63533657715599
            ],
            [
              -73.96785979706762,
              40.63461769801812
            ],
            [
              -73.96814069079193,
              40.63388397847653
            ],
            [
              -73.96836032169121,
              40.633138313746365
            ],
            [
              -73.96851782298263,
              40.63238364627553
            ],
            [
              -73.96861257308055,
              40.63162295413762
            ],
            [
              -73.96864419804962,
              40.630859239282934
            ],
            [
              -73.96861257308055,
              40.63009551569347
            ],
            [
              -73.96851782298263,
              40.629334797489
            ],
            [
              -73.96836032169121,
              40.62858008703089
            ],
            [
              -73.96814069079193,
              40.6278343630707
            ],
            [
              -73.96785979706762,
              40.6271005689904
            ],
            [
              -73.96751874907748,
              40.62638160118068
            ],
            [
              -73.9671188927821,
              40.62568029760328
            ],
            [
              -73.96666180623163,
              40.624999426582555
            ],
            [
              -73.96614929333784,
              40.62434167587071
            ],
            [
              -73.96558337675496,
              40.62370964203
            ],
            [
              -73.96496628989725,
              40.62310582017392
            ],
            [
              -73.96430046812459,
              40.62253259410803
            ],
            [
              -73.96358853913131,
              40.621992226909654
            ],
            [
              -73.96283331257594,
              40.62148685198365
            ],
            [
              -73.96203776899263,
              40.62101846462985
            ],
            [
              -73.96120504802846,
              40.620588914155725
            ],
            [
              -73.96033843605267,
              40.62019989656539
            ],
            [
              -73.95944135318676,
              40.6198529478542
            ],
            [
              -73.95851733980702,
              40.61954943793552
            ],
            [
              -73.95757004257207,
              40.61929056522383
            ],
            [
              -73.95660320003135,
              40.61907735189566
            ],
            [
              -73.95562062787064,
              40.618910639847236
            ],
            [
              -73.95462620385338,
              40.618791087365025
            ],
            [
              -73.95362385251684,
              40.61871916652217
            ],
            [
              -73.95261752968383,
              40.61869516131147
            ],
            [
              -73.95161120685081,
              40.61871916652217
            ],
            [
              -73.95060885551428,
              40.618791087365025
            ],
            [
              -73.94961443149703,
              40.618910639847236
            ],
            [
              -73.94863185933632,
              40.61907735189566
            ],
            [
              -73.9476650167956,
              40.61929056522383
            ],
            [
              -73.94671771956065,
              40.61954943793552
            ],
            [
              -73.94579370618091,
              40.6198529478542
            ],
            [
              -73.944896623315,
              40.62019989656539
            ],
            [
              -73.94403001133921,
              40.620588914155725
            ],
            [
              -73.94319729037504,
              40.62101846462985
            ],
            [
              -73.94240174679173,
              40.62148685198365
            ],
            [
              -73.94164652023635,
              40.621992226909654
            ],
            [
              -73.94093459124309,
              40.62253259410803
            ],
            [
              -73.94026876947042,
              40.62310582017392
            ],
            [
              -73.93965168261269,
              40.62370964203
            ],
            [
              -73.93908576602983,
              40.62434167587071
            ],
            [
              -73.93857325313604,
              40.624999426582555
            ],
            [
              -73.93811616658556,
              40.62568029760328
            ],
            [
              -73.9377163102902,
              40.62638160118068
            ],
            [
              -73.93737526230005,
              40.6271005689904
            ],
            [
              -73.93709436857574,
              40.6278343630707
            ],
            [
              -73.93687473767646,
              40.62858008703089
            ],
            [
              -73.93671723638505,
              40.629334797489
            ],
            [
              -73.93659086131805,
              40.630859239282934
            ]
          ]
        ]
      }
    }
  ]
}
