{
"type": "FeatureCollection",
"name": "corridor",
"crs": { "type": "name", "properties": { "name": "urn:ogc:def:crs:OGC:1.3:CRS84" } },
"features": [
{ "type": "Feature", "properties": { "Shape__Len": 74364.112868700002 }, "geometry": { "type": "MultiLineString", "coordinates": [ [ [ -73.894473345793699, 40.74647509379988 ], [ -73.886318998130164, 40.730915985954987 ], [ -73.884869080223794, 40.722394768938294 ], [ -73.888801559791361, 40.712557335194816 ], [ -73.894509982540455, 40.700901776168919 ], [ -73.904535650576378, 40.689015992566823 ], [ -73.90305740645374, 40.67511370230023 ], [ -73.902059466898507, 40.668276405352785 ], [ -73.900550043794993, 40.663776788492768 ], [ -73.900298057095497, 40.657419987361436 ], [ -73.913729149804269, 40.647187492306045 ], [ -73.928807265618417, 40.636878658995897 ], [ -73.948084222953952, 40.630681575814293 ], [ -73.961527819563216, 40.629144456963289 ], [ -73.99689043323788, 40.626396500123541 ], [ -74.010452763472742, 40.634609100318606 ], [ -74.022022809651972, 40.637530054170078 ], [ -74.026151291704764, 40.640503081080553 ] ] ] } }
]
}
