{
  "type" : "FeatureCollection",
  "features" : [{"type":"Feature","id":17,"geometry":null,"properties":{"OBJECTID":17,"StationName":"Grand Avenue"}},{"type":"Feature","id":18,"geometry":null,"properties":{"OBJECTID":18,"StationName":"Eliot Avenue"}},{"type":"Feature","id":19,"geometry":null,"properties":{"OBJECTID":19,"StationName":"Myrtle Avenue"}},{"type":"Feature","id":20,"geometry":null,"properties":{"OBJECTID":20,"StationName":"Linden Blvd"}},{"type":"Feature","id":21,"geometry":null,"properties":{"OBJECTID":21,"StationName":"Remsen Avenue"}},{"type":"Feature","id":22,"geometry":null,"properties":{"OBJECTID":22,"StationName":"Utica Avenue"}},{"type":"Feature","id":24,"geometry":null,"properties":{"OBJECTID":24,"StationName":"8 Avenue"}},{"type":"Feature","id":25,"geometry":null,"properties":{"OBJECTID":25,"StationName":"Brooklyn Army Terminal"}},{"type":"Feature","id":26,"geometry":null,"properties":{"OBJECTID":26,"StationName":"Roosevelt Avenue"}},{"type":"Feature","id":27,"geometry":null,"properties":{"OBJECTID":27,"StationName":"Metropolitan Avenue"}},{"type":"Feature","id":28,"geometry":null,"properties":{"OBJECTID":28,"StationName":"Wilson Avenue"}},{"type":"Feature","id":29,"geometry":null,"properties":{"OBJECTID":29,"StationName":"Atlantic Avenue"}},{"type":"Feature","id":30,"geometry":null,"properties":{"OBJECTID":30,"StationName":"Sutter Avenue"}},{"type":"Feature","id":31,"geometry":null,"properties":{"OBJECTID":31,"StationName":"Livonia Avenue"}},{"type":"Feature","id":32,"geometry":null,"properties":{"OBJECTID":32,"StationName":"Flatbush Av - Nostrand Av"}},{"type":"Feature","id":33,"geometry":null,"properties":{"OBJECTID":33,"StationName":"East 16 Street"}},{"type":"Feature","id":34,"geometry":null,"properties":{"OBJECTID":34,"StationName":"4 Avenue"}},{"type":"Feature","id":35,"geometry":null,"properties":{"OBJECTID":35,"StationName":"New Utrecht Avenue"}},{"type":"Feature","id":36,"geometry":null,"properties":{"OBJECTID":36,"StationName":"McDonald Avenue"}}]
}