{
"type": "FeatureCollection",
"name": "IBX corridor",
"crs": { "type": "name", "properties": { "name": "urn:ogc:def:crs:EPSG::2263" } },
"features": [
{ "type": "Feature", "properties": { "Shape__Len": 74364.112868700002 }, "geometry": { "type": "MultiLineString", "coordinates": [ [ [ 1013490.102268889546394, 211255.5060163885355 ], [ 1015756.936974048614502, 205589.659080386161804 ], [ 1016162.86956113576889, 202485.639697894454002 ], [ 1015077.387480139732361, 198900.15014973282814 ], [ 1013499.966750472784042, 194651.717045560479164 ], [ 1010724.800384804606438, 190318.178140476346016 ], [ 1011140.369107469916344, 185253.61904388666153 ], [ 1011419.970582380890846, 182762.90388098359108 ], [ 1011840.567510217428207, 181124.038064226508141 ], [ 1011913.115593478083611, 178808.155556887388229 ], [ 1008190.225401476025581, 175076.206984058022499 ], [ 1004009.094328060746193, 171316.643308982253075 ], [ 998660.238227888941765, 169055.103212639689445 ], [ 994928.953039556741714, 168493.154205307364464 ], [ 985113.181332558393478, 167489.643745139241219 ], [ 981348.806971549987793, 170481.870372220873833 ], [ 978137.775007799267769, 171546.644161313772202 ], [ 976992.275002226233482, 172630.113122969865799 ] ] ] } }
]
}
