{
"type": "FeatureCollection",
"name": "IBX Stations",
"crs": { "type": "name", "properties": { "name": "urn:ogc:def:crs:EPSG::2263" } },
"bbox": [ 976992.275002226, 167489.643745139, 1016162.86956114, 211255.506016389 ],                                                
"features": [
{ "type": "Feature", "properties": { "StationNam": "Grand Avenue" }, "bbox": [ 1015756.936974048614502, 205589.659080386161804, 1015756.936974048614502, 205589.659080386161804 ], "geometry": { "type": "Point", "coordinates": [ 1015756.936974048614502, 205589.659080386161804 ] } },
{ "type": "Feature", "properties": { "StationNam": "Eliot Avenue" }, "bbox": [ 1016162.86956113576889, 202485.639697894454002, 1016162.86956113576889, 202485.639697894454002 ], "geometry": { "type": "Point", "coordinates": [ 1016162.86956113576889, 202485.639697894454002 ] } },
{ "type": "Feature", "properties": { "StationNam": "Myrtle Avenue" }, "bbox": [ 1013499.966750472784042, 194651.717045560479164, 1013499.966750472784042, 194651.717045560479164 ], "geometry": { "type": "Point", "coordinates": [ 1013499.966750472784042, 194651.717045560479164 ] } },
{ "type": "Feature", "properties": { "StationNam": "Linden Blvd" }, "bbox": [ 1011913.115593478083611, 178808.155556887388229, 1011913.115593478083611, 178808.155556887388229 ], "geometry": { "type": "Point", "coordinates": [ 1011913.115593478083611, 178808.155556887388229 ] } },
{ "type": "Feature", "properties": { "StationNam": "Remsen Avenue" }, "bbox": [ 1008190.225401476025581, 175076.206984058022499, 1008190.225401476025581, 175076.206984058022499 ], "geometry": { "type": "Point", "coordinates": [ 1008190.225401476025581, 175076.206984058022499 ] } },
{ "type": "Feature", "properties": { "StationNam": "Utica Avenue" }, "bbox": [ 1004009.094328060746193, 171316.643308982253075, 1004009.094328060746193, 171316.643308982253075 ], "geometry": { "type": "Point", "coordinates": [ 1004009.094328060746193, 171316.643308982253075 ] } },
{ "type": "Feature", "properties": { "StationNam": "8 Avenue" }, "bbox": [ 981348.806971549987793, 170481.870372220873833, 981348.806971549987793, 170481.870372220873833 ], "geometry": { "type": "Point", "coordinates": [ 981348.806971549987793, 170481.870372220873833 ] } },
{ "type": "Feature", "properties": { "StationNam": "Brooklyn Army Terminal" }, "bbox": [ 976992.275002226233482, 172630.113122969865799, 976992.275002226233482, 172630.113122969865799 ], "geometry": { "type": "Point", "coordinates": [ 976992.275002226233482, 172630.113122969865799 ] } },
{ "type": "Feature", "properties": { "StationNam": "Roosevelt Avenue" }, "bbox": [ 1013490.102268889546394, 211255.5060163885355, 1013490.102268889546394, 211255.5060163885355 ], "geometry": { "type": "Point", "coordinates": [ 1013490.102268889546394, 211255.5060163885355 ] } },
{ "type": "Feature", "properties": { "StationNam": "Metropolitan Avenue" }, "bbox": [ 1015077.387480139732361, 198900.150477811694145, 1015077.387480139732361, 198900.150477811694145 ], "geometry": { "type": "Point", "coordinates": [ 1015077.387480139732361, 198900.150477811694145 ] } },
{ "type": "Feature", "properties": { "StationNam": "Wilson Avenue" }, "bbox": [ 1010724.800384804606438, 190318.178140476346016, 1010724.800384804606438, 190318.178140476346016 ], "geometry": { "type": "Point", "coordinates": [ 1010724.800384804606438, 190318.178140476346016 ] } },
{ "type": "Feature", "properties": { "StationNam": "Atlantic Avenue" }, "bbox": [ 1011140.369107469916344, 185253.61904388666153, 1011140.369107469916344, 185253.61904388666153 ], "geometry": { "type": "Point", "coordinates": [ 1011140.369107469916344, 185253.61904388666153 ] } },
{ "type": "Feature", "properties": { "StationNam": "Sutter Avenue" }, "bbox": [ 1011419.970582380890846, 182762.90388098359108, 1011419.970582380890846, 182762.90388098359108 ], "geometry": { "type": "Point", "coordinates": [ 1011419.970582380890846, 182762.90388098359108 ] } },
{ "type": "Feature", "properties": { "StationNam": "Livonia Avenue" }, "bbox": [ 1011840.567510217428207, 181124.038064226508141, 1011840.567510217428207, 181124.038064226508141 ], "geometry": { "type": "Point", "coordinates": [ 1011840.567510217428207, 181124.038064226508141 ] } },
{ "type": "Feature", "properties": { "StationNam": "Flatbush Av - Nostrand Av" }, "bbox": [ 998660.238227888941765, 169055.102884560823441, 998660.238227888941765, 169055.102884560823441 ], "geometry": { "type": "Point", "coordinates": [ 998660.238227888941765, 169055.102884560823441 ] } },
{ "type": "Feature", "properties": { "StationNam": "East 16 Street" }, "bbox": [ 994928.953039556741714, 168493.154205307364464, 994928.953039556741714, 168493.154205307364464 ], "geometry": { "type": "Point", "coordinates": [ 994928.953039556741714, 168493.154205307364464 ] } },
{ "type": "Feature", "properties": { "StationNam": "4 Avenue" }, "bbox": [ 978137.775007799267769, 171546.644161313772202, 978137.775007799267769, 171546.644161313772202 ], "geometry": { "type": "Point", "coordinates": [ 978137.775007799267769, 171546.644161313772202 ] } },
{ "type": "Feature", "properties": { "StationNam": "New Utrecht Avenue" }, "bbox": [ 985113.181332558393478, 167489.643745139241219, 985113.181332558393478, 167489.643745139241219 ], "geometry": { "type": "Point", "coordinates": [ 985113.181332558393478, 167489.643745139241219 ] } },
{ "type": "Feature", "properties": { "StationNam": "McDonald Avenue" }, "bbox": [ 990739.877756297588348, 168066.373562812805176, 990739.877756297588348, 168066.373562812805176 ], "geometry": { "type": "Point", "coordinates": [ 990739.877756297588348, 168066.373562812805176 ] } }
]
}
